{
"type": "FeatureCollection",
"name": "transformers",
"crs": { "type": "name", "properties": { "name": "urn:ogc:def:crs:OGC:1.3:CRS84" } },
"features": [
{ "type": "Feature", "properties": { "tr_id": "TR-001", "kp_count": 22, "ss_id": "SS-SYSMA", "feeder_id": "F02" }, "geometry": { "type": "Point", "coordinates": [ 25.583919802332218, 61.556039158128861 ] } },
{ "type": "Feature", "properties": { "tr_id": "TR-002", "kp_count": 23, "ss_id": "SS-NUORAMOINEN", "feeder_id": "F05" }, "geometry": { "type": "Point", "coordinates": [ 25.817991248504224, 61.354415477245311 ] } },
{ "type": "Feature", "properties": { "tr_id": "TR-003", "kp_count": 36, "ss_id": "SS-SYSMA", "feeder_id": "F01" }, "geometry": { "type": "Point", "coordinates": [ 25.869851244943252, 61.531310329580265 ] } },
{ "type": "Feature", "properties": { "tr_id": "TR-004", "kp_count": 58, "ss_id": "SS-SYSMA", "feeder_id": "F02" }, "geometry": { "type": "Point", "coordinates": [ 25.659015185835056, 61.498497650310782 ] } },
{ "type": "Feature", "properties": { "tr_id": "TR-005", "kp_count": 24, "ss_id": "SS-SYSMA", "feeder_id": "F03" }, "geometry": { "type": "Point", "coordinates": [ 25.655768094302132, 61.70044142924101 ] } },
{ "type": "Feature", "properties": { "tr_id": "TR-006", "kp_count": 35, "ss_id": "SS-SYSMA", "feeder_id": "F04" }, "geometry": { "type": "Point", "coordinates": [ 25.605231756789301, 61.412422417103478 ] } },
{ "type": "Feature", "properties": { "tr_id": "TR-007", "kp_count": 33, "ss_id": "SS-NUORAMOINEN", "feeder_id": "F06" }, "geometry": { "type": "Point", "coordinates": [ 25.969643263752335, 61.423337675407133 ] } },
{ "type": "Feature", "properties": { "tr_id": "TR-008", "kp_count": 28, "ss_id": "SS-SYSMA", "feeder_id": "F03" }, "geometry": { "type": "Point", "coordinates": [ 25.694074947752444, 61.617301655535421 ] } },
{ "type": "Feature", "properties": { "tr_id": "TR-009", "kp_count": 24, "ss_id": "SS-NUORAMOINEN", "feeder_id": "F05" }, "geometry": { "type": "Point", "coordinates": [ 25.82647227790839, 61.396095446697764 ] } },
{ "type": "Feature", "properties": { "tr_id": "TR-010", "kp_count": 111, "ss_id": "SS-SYSMA", "feeder_id": "F02" }, "geometry": { "type": "Point", "coordinates": [ 25.58242738613151, 61.47396920340497 ] } },
{ "type": "Feature", "properties": { "tr_id": "TR-011", "kp_count": 27, "ss_id": "SS-NUORAMOINEN", "feeder_id": "F06" }, "geometry": { "type": "Point", "coordinates": [ 25.800426922061483, 61.467060047113804 ] } },
{ "type": "Feature", "properties": { "tr_id": "TR-012", "kp_count": 50, "ss_id": "SS-SYSMA", "feeder_id": "F01" }, "geometry": { "type": "Point", "coordinates": [ 25.758883701086866, 61.581988282809107 ] } },
{ "type": "Feature", "properties": { "tr_id": "TR-013", "kp_count": 33, "ss_id": "SS-NUORAMOINEN", "feeder_id": "F05" }, "geometry": { "type": "Point", "coordinates": [ 25.573562341755192, 61.342506285411538 ] } },
{ "type": "Feature", "properties": { "tr_id": "TR-014", "kp_count": 17, "ss_id": "SS-NUORAMOINEN", "feeder_id": "F06" }, "geometry": { "type": "Point", "coordinates": [ 26.095212842110143, 61.390462334286504 ] } },
{ "type": "Feature", "properties": { "tr_id": "TR-015", "kp_count": 63, "ss_id": "SS-SYSMA", "feeder_id": "F01" }, "geometry": { "type": "Point", "coordinates": [ 25.764679334134176, 61.542478037209392 ] } },
{ "type": "Feature", "properties": { "tr_id": "TR-016", "kp_count": 62, "ss_id": "SS-SYSMA", "feeder_id": "F03" }, "geometry": { "type": "Point", "coordinates": [ 25.585522603815743, 61.620998403592083 ] } },
{ "type": "Feature", "properties": { "tr_id": "TR-017", "kp_count": 53, "ss_id": "SS-SYSMA", "feeder_id": "F02" }, "geometry": { "type": "Point", "coordinates": [ 25.561429686138524, 61.497849203406979 ] } },
{ "type": "Feature", "properties": { "tr_id": "TR-018", "kp_count": 21, "ss_id": "SS-SYSMA", "feeder_id": "F03" }, "geometry": { "type": "Point", "coordinates": [ 25.763149209987674, 61.639837113618576 ] } },
{ "type": "Feature", "properties": { "tr_id": "TR-019", "kp_count": 42, "ss_id": "SS-SYSMA", "feeder_id": "F03" }, "geometry": { "type": "Point", "coordinates": [ 25.596571818382383, 61.669013233185886 ] } },
{ "type": "Feature", "properties": { "tr_id": "TR-020", "kp_count": 34, "ss_id": "SS-SYSMA", "feeder_id": "F02" }, "geometry": { "type": "Point", "coordinates": [ 25.683588480799813, 61.545817755470019 ] } },
{ "type": "Feature", "properties": { "tr_id": "TR-021", "kp_count": 30, "ss_id": "SS-NUORAMOINEN", "feeder_id": "F06" }, "geometry": { "type": "Point", "coordinates": [ 25.877541113976434, 61.484118070865016 ] } },
{ "type": "Feature", "properties": { "tr_id": "TR-022", "kp_count": 64, "ss_id": "SS-NUORAMOINEN", "feeder_id": "F06" }, "geometry": { "type": "Point", "coordinates": [ 25.848283636796566, 61.442061336192303 ] } },
{ "type": "Feature", "properties": { "tr_id": "TR-023", "kp_count": 14, "ss_id": "SS-NUORAMOINEN", "feeder_id": "F06" }, "geometry": { "type": "Point", "coordinates": [ 26.126335215155667, 61.413819155117686 ] } },
{ "type": "Feature", "properties": { "tr_id": "TR-024", "kp_count": 16, "ss_id": "SS-SYSMA", "feeder_id": "F04" }, "geometry": { "type": "Point", "coordinates": [ 25.67346526552857, 61.433351039311241 ] } },
{ "type": "Feature", "properties": { "tr_id": "TR-025", "kp_count": 38, "ss_id": "SS-NUORAMOINEN", "feeder_id": "F06" }, "geometry": { "type": "Point", "coordinates": [ 25.977657176746778, 61.38282491790735 ] } },
{ "type": "Feature", "properties": { "tr_id": "TR-026", "kp_count": 54, "ss_id": "SS-SYSMA", "feeder_id": "F02" }, "geometry": { "type": "Point", "coordinates": [ 25.728620270676167, 61.485805116370742 ] } },
{ "type": "Feature", "properties": { "tr_id": "TR-027", "kp_count": 30, "ss_id": "SS-SYSMA", "feeder_id": "F01" }, "geometry": { "type": "Point", "coordinates": [ 25.84172302933603, 61.625771927658917 ] } },
{ "type": "Feature", "properties": { "tr_id": "TR-028", "kp_count": 15, "ss_id": "SS-SYSMA", "feeder_id": "F02" }, "geometry": { "type": "Point", "coordinates": [ 25.684959065723476, 61.566935889725968 ] } },
{ "type": "Feature", "properties": { "tr_id": "TR-029", "kp_count": 33, "ss_id": "SS-SYSMA", "feeder_id": "F04" }, "geometry": { "type": "Point", "coordinates": [ 25.511457339618126, 61.437889017521137 ] } },
{ "type": "Feature", "properties": { "tr_id": "TR-030", "kp_count": 35, "ss_id": "SS-SYSMA", "feeder_id": "F04" }, "geometry": { "type": "Point", "coordinates": [ 25.680795375810959, 61.453584272579839 ] } },
{ "type": "Feature", "properties": { "tr_id": "TR-031", "kp_count": 20, "ss_id": "SS-NUORAMOINEN", "feeder_id": "F05" }, "geometry": { "type": "Point", "coordinates": [ 25.761691332526652, 61.387442268973707 ] } },
{ "type": "Feature", "properties": { "tr_id": "TR-032", "kp_count": 27, "ss_id": "SS-SYSMA", "feeder_id": "F02" }, "geometry": { "type": "Point", "coordinates": [ 25.487893225032575, 61.522808226131765 ] } },
{ "type": "Feature", "properties": { "tr_id": "TR-033", "kp_count": 38, "ss_id": "SS-NUORAMOINEN", "feeder_id": "F06" }, "geometry": { "type": "Point", "coordinates": [ 26.029406335268856, 61.440599094151274 ] } },
{ "type": "Feature", "properties": { "tr_id": "TR-034", "kp_count": 26, "ss_id": "SS-SYSMA", "feeder_id": "F03" }, "geometry": { "type": "Point", "coordinates": [ 25.667944445317382, 61.655101950543958 ] } },
{ "type": "Feature", "properties": { "tr_id": "TR-035", "kp_count": 19, "ss_id": "SS-SYSMA", "feeder_id": "F01" }, "geometry": { "type": "Point", "coordinates": [ 25.83909814577467, 61.584636376759462 ] } },
{ "type": "Feature", "properties": { "tr_id": "TR-036", "kp_count": 22, "ss_id": "SS-NUORAMOINEN", "feeder_id": "F05" }, "geometry": { "type": "Point", "coordinates": [ 25.63278217673292, 61.367056340706768 ] } },
{ "type": "Feature", "properties": { "tr_id": "TR-037", "kp_count": 25, "ss_id": "SS-SYSMA", "feeder_id": "F03" }, "geometry": { "type": "Point", "coordinates": [ 25.615784701204849, 61.591532527834168 ] } },
{ "type": "Feature", "properties": { "tr_id": "TR-038", "kp_count": 35, "ss_id": "SS-SYSMA", "feeder_id": "F02" }, "geometry": { "type": "Point", "coordinates": [ 25.711516554463362, 61.530482182896179 ] } },
{ "type": "Feature", "properties": { "tr_id": "TR-039", "kp_count": 27, "ss_id": "SS-SYSMA", "feeder_id": "F03" }, "geometry": { "type": "Point", "coordinates": [ 25.546295664921747, 61.669442650223971 ] } },
{ "type": "Feature", "properties": { "tr_id": "TR-040", "kp_count": 39, "ss_id": "SS-SYSMA", "feeder_id": "F03" }, "geometry": { "type": "Point", "coordinates": [ 25.670689968667467, 61.686190941052665 ] } },
{ "type": "Feature", "properties": { "tr_id": "TR-041", "kp_count": 18, "ss_id": "SS-NUORAMOINEN", "feeder_id": "F05" }, "geometry": { "type": "Point", "coordinates": [ 25.766553604080563, 61.43670489062913 ] } },
{ "type": "Feature", "properties": { "tr_id": "TR-042", "kp_count": 31, "ss_id": "SS-SYSMA", "feeder_id": "F04" }, "geometry": { "type": "Point", "coordinates": [ 25.586326732951456, 61.391437352644502 ] } },
{ "type": "Feature", "properties": { "tr_id": "TR-043", "kp_count": 42, "ss_id": "SS-SYSMA", "feeder_id": "F04" }, "geometry": { "type": "Point", "coordinates": [ 25.612319431932999, 61.450095382327838 ] } },
{ "type": "Feature", "properties": { "tr_id": "TR-044", "kp_count": 23, "ss_id": "SS-NUORAMOINEN", "feeder_id": "F06" }, "geometry": { "type": "Point", "coordinates": [ 25.904107285635046, 61.409731898013881 ] } },
{ "type": "Feature", "properties": { "tr_id": "TR-045", "kp_count": 27, "ss_id": "SS-SYSMA", "feeder_id": "F03" }, "geometry": { "type": "Point", "coordinates": [ 25.693344664511436, 61.586842688130645 ] } },
{ "type": "Feature", "properties": { "tr_id": "TR-046", "kp_count": 31, "ss_id": "SS-SYSMA", "feeder_id": "F02" }, "geometry": { "type": "Point", "coordinates": [ 25.591624268638913, 61.511835281106528 ] } },
{ "type": "Feature", "properties": { "tr_id": "TR-047", "kp_count": 41, "ss_id": "SS-NUORAMOINEN", "feeder_id": "F06" }, "geometry": { "type": "Point", "coordinates": [ 25.890665855817758, 61.51700903874783 ] } },
{ "type": "Feature", "properties": { "tr_id": "TR-048", "kp_count": 24, "ss_id": "SS-SYSMA", "feeder_id": "F01" }, "geometry": { "type": "Point", "coordinates": [ 25.862210724043955, 61.569936364528878 ] } },
{ "type": "Feature", "properties": { "tr_id": "TR-049", "kp_count": 21, "ss_id": "SS-SYSMA", "feeder_id": "F01" }, "geometry": { "type": "Point", "coordinates": [ 25.808820620467607, 61.532642867488548 ] } },
{ "type": "Feature", "properties": { "tr_id": "TR-050", "kp_count": 38, "ss_id": "SS-SYSMA", "feeder_id": "F01" }, "geometry": { "type": "Point", "coordinates": [ 25.841690675472542, 61.53021128720183 ] } },
{ "type": "Feature", "properties": { "tr_id": "TR-051", "kp_count": 20, "ss_id": "SS-SYSMA", "feeder_id": "F03" }, "geometry": { "type": "Point", "coordinates": [ 25.556491681076505, 61.597416452463428 ] } },
{ "type": "Feature", "properties": { "tr_id": "TR-052", "kp_count": 26, "ss_id": "SS-SYSMA", "feeder_id": "F01" }, "geometry": { "type": "Point", "coordinates": [ 25.932502998942436, 61.543328237486449 ] } },
{ "type": "Feature", "properties": { "tr_id": "TR-053", "kp_count": 23, "ss_id": "SS-SYSMA", "feeder_id": "F03" }, "geometry": { "type": "Point", "coordinates": [ 25.725310220121688, 61.679328970117986 ] } },
{ "type": "Feature", "properties": { "tr_id": "TR-054", "kp_count": 19, "ss_id": "SS-NUORAMOINEN", "feeder_id": "F05" }, "geometry": { "type": "Point", "coordinates": [ 25.854327714465676, 61.341196303832369 ] } },
{ "type": "Feature", "properties": { "tr_id": "TR-055", "kp_count": 48, "ss_id": "SS-SYSMA", "feeder_id": "F02" }, "geometry": { "type": "Point", "coordinates": [ 25.625962358123743, 61.486591193618679 ] } },
{ "type": "Feature", "properties": { "tr_id": "TR-056", "kp_count": 37, "ss_id": "SS-NUORAMOINEN", "feeder_id": "F05" }, "geometry": { "type": "Point", "coordinates": [ 25.654981253364728, 61.401637843992809 ] } },
{ "type": "Feature", "properties": { "tr_id": "TR-057", "kp_count": 24, "ss_id": "SS-SYSMA", "feeder_id": "F03" }, "geometry": { "type": "Point", "coordinates": [ 25.648627840317147, 61.640758842171699 ] } },
{ "type": "Feature", "properties": { "tr_id": "TR-058", "kp_count": 16, "ss_id": "SS-SYSMA", "feeder_id": "F02" }, "geometry": { "type": "Point", "coordinates": [ 25.521378236982095, 61.551451173717368 ] } },
{ "type": "Feature", "properties": { "tr_id": "TR-059", "kp_count": 25, "ss_id": "SS-SYSMA", "feeder_id": "F04" }, "geometry": { "type": "Point", "coordinates": [ 25.635121697996475, 61.466523054242295 ] } },
{ "type": "Feature", "properties": { "tr_id": "TR-060", "kp_count": 24, "ss_id": "SS-SYSMA", "feeder_id": "F03" }, "geometry": { "type": "Point", "coordinates": [ 25.627877148339277, 61.645813281248273 ] } },
{ "type": "Feature", "properties": { "tr_id": "TR-061", "kp_count": 24, "ss_id": "SS-SYSMA", "feeder_id": "F04" }, "geometry": { "type": "Point", "coordinates": [ 25.727843977295979, 61.448915014569742 ] } },
{ "type": "Feature", "properties": { "tr_id": "TR-062", "kp_count": 22, "ss_id": "SS-SYSMA", "feeder_id": "F04" }, "geometry": { "type": "Point", "coordinates": [ 25.541321312176244, 61.368437382730903 ] } },
{ "type": "Feature", "properties": { "tr_id": "TR-063", "kp_count": 51, "ss_id": "SS-SYSMA", "feeder_id": "F02" }, "geometry": { "type": "Point", "coordinates": [ 25.717059493902752, 61.495492848300209 ] } },
{ "type": "Feature", "properties": { "tr_id": "TR-064", "kp_count": 53, "ss_id": "SS-SYSMA", "feeder_id": "F03" }, "geometry": { "type": "Point", "coordinates": [ 25.659656654518727, 61.586325256931651 ] } },
{ "type": "Feature", "properties": { "tr_id": "TR-065", "kp_count": 17, "ss_id": "SS-SYSMA", "feeder_id": "F03" }, "geometry": { "type": "Point", "coordinates": [ 25.525034442136903, 61.608869491823626 ] } },
{ "type": "Feature", "properties": { "tr_id": "TR-066", "kp_count": 29, "ss_id": "SS-NUORAMOINEN", "feeder_id": "F06" }, "geometry": { "type": "Point", "coordinates": [ 25.859542953934923, 61.504111525244014 ] } },
{ "type": "Feature", "properties": { "tr_id": "TR-067", "kp_count": 24, "ss_id": "SS-NUORAMOINEN", "feeder_id": "F05" }, "geometry": { "type": "Point", "coordinates": [ 25.775012793194051, 61.417077556090881 ] } },
{ "type": "Feature", "properties": { "tr_id": "TR-068", "kp_count": 97, "ss_id": "SS-SYSMA", "feeder_id": "F02" }, "geometry": { "type": "Point", "coordinates": [ 25.682253123713689, 61.506915501409246 ] } },
{ "type": "Feature", "properties": { "tr_id": "TR-069", "kp_count": 34, "ss_id": "SS-NUORAMOINEN", "feeder_id": "F06" }, "geometry": { "type": "Point", "coordinates": [ 26.163461760321415, 61.419460847527922 ] } },
{ "type": "Feature", "properties": { "tr_id": "TR-070", "kp_count": 37, "ss_id": "SS-SYSMA", "feeder_id": "F02" }, "geometry": { "type": "Point", "coordinates": [ 25.706591680664594, 61.475672273465051 ] } },
{ "type": "Feature", "properties": { "tr_id": "TR-071", "kp_count": 22, "ss_id": "SS-SYSMA", "feeder_id": "F03" }, "geometry": { "type": "Point", "coordinates": [ 25.714251666346364, 61.653343741167106 ] } },
{ "type": "Feature", "properties": { "tr_id": "TR-072", "kp_count": 38, "ss_id": "SS-SYSMA", "feeder_id": "F04" }, "geometry": { "type": "Point", "coordinates": [ 25.573929400331316, 61.448679072345357 ] } },
{ "type": "Feature", "properties": { "tr_id": "TR-073", "kp_count": 20, "ss_id": "SS-NUORAMOINEN", "feeder_id": "F06" }, "geometry": { "type": "Point", "coordinates": [ 25.81362846167487, 61.454732109258366 ] } },
{ "type": "Feature", "properties": { "tr_id": "TR-074", "kp_count": 35, "ss_id": "SS-NUORAMOINEN", "feeder_id": "F05" }, "geometry": { "type": "Point", "coordinates": [ 25.781835378461885, 61.348302793947646 ] } },
{ "type": "Feature", "properties": { "tr_id": "TR-075", "kp_count": 38, "ss_id": "SS-SYSMA", "feeder_id": "F03" }, "geometry": { "type": "Point", "coordinates": [ 25.62775066579476, 61.610972332167755 ] } },
{ "type": "Feature", "properties": { "tr_id": "TR-076", "kp_count": 41, "ss_id": "SS-SYSMA", "feeder_id": "F02" }, "geometry": { "type": "Point", "coordinates": [ 25.591321030383011, 61.527809779899691 ] } },
{ "type": "Feature", "properties": { "tr_id": "TR-077", "kp_count": 32, "ss_id": "SS-SYSMA", "feeder_id": "F02" }, "geometry": { "type": "Point", "coordinates": [ 25.60125660631925, 61.572825510462032 ] } },
{ "type": "Feature", "properties": { "tr_id": "TR-078", "kp_count": 16, "ss_id": "SS-SYSMA", "feeder_id": "F03" }, "geometry": { "type": "Point", "coordinates": [ 25.732829551499336, 61.706192478764187 ] } },
{ "type": "Feature", "properties": { "tr_id": "TR-079", "kp_count": 27, "ss_id": "SS-NUORAMOINEN", "feeder_id": "F06" }, "geometry": { "type": "Point", "coordinates": [ 26.01417251295975, 61.389615377046468 ] } },
{ "type": "Feature", "properties": { "tr_id": "TR-080", "kp_count": 39, "ss_id": "SS-SYSMA", "feeder_id": "F02" }, "geometry": { "type": "Point", "coordinates": [ 25.64995282031694, 61.522597817316885 ] } },
{ "type": "Feature", "properties": { "tr_id": "TR-081", "kp_count": 29, "ss_id": "SS-NUORAMOINEN", "feeder_id": "F05" }, "geometry": { "type": "Point", "coordinates": [ 25.706230503573028, 61.392796032411745 ] } },
{ "type": "Feature", "properties": { "tr_id": "TR-082", "kp_count": 23, "ss_id": "SS-NUORAMOINEN", "feeder_id": "F05" }, "geometry": { "type": "Point", "coordinates": [ 25.657128652456763, 61.381514954257071 ] } },
{ "type": "Feature", "properties": { "tr_id": "TR-083", "kp_count": 26, "ss_id": "SS-NUORAMOINEN", "feeder_id": "F05" }, "geometry": { "type": "Point", "coordinates": [ 25.815447595317771, 61.422293434710141 ] } },
{ "type": "Feature", "properties": { "tr_id": "TR-084", "kp_count": 34, "ss_id": "SS-SYSMA", "feeder_id": "F01" }, "geometry": { "type": "Point", "coordinates": [ 25.797684996627556, 61.519992409432739 ] } },
{ "type": "Feature", "properties": { "tr_id": "TR-085", "kp_count": 47, "ss_id": "SS-SYSMA", "feeder_id": "F02" }, "geometry": { "type": "Point", "coordinates": [ 25.55155210635878, 61.511130441036585 ] } },
{ "type": "Feature", "properties": { "tr_id": "TR-086", "kp_count": 35, "ss_id": "SS-NUORAMOINEN", "feeder_id": "F06" }, "geometry": { "type": "Point", "coordinates": [ 25.958559084658805, 61.404996636768658 ] } },
{ "type": "Feature", "properties": { "tr_id": "TR-087", "kp_count": 46, "ss_id": "SS-NUORAMOINEN", "feeder_id": "F06" }, "geometry": { "type": "Point", "coordinates": [ 26.042432519300689, 61.414566088417075 ] } },
{ "type": "Feature", "properties": { "tr_id": "TR-088", "kp_count": 41, "ss_id": "SS-NUORAMOINEN", "feeder_id": "F05" }, "geometry": { "type": "Point", "coordinates": [ 25.792965150936517, 61.392752643287494 ] } },
{ "type": "Feature", "properties": { "tr_id": "TR-089", "kp_count": 29, "ss_id": "SS-SYSMA", "feeder_id": "F02" }, "geometry": { "type": "Point", "coordinates": [ 25.647850106851113, 61.562192748331007 ] } },
{ "type": "Feature", "properties": { "tr_id": "TR-090", "kp_count": 34, "ss_id": "SS-SYSMA", "feeder_id": "F02" }, "geometry": { "type": "Point", "coordinates": [ 25.728174274181004, 61.512256564644211 ] } },
{ "type": "Feature", "properties": { "tr_id": "TR-091", "kp_count": 11, "ss_id": "SS-NUORAMOINEN", "feeder_id": "F06" }, "geometry": { "type": "Point", "coordinates": [ 25.902030081022971, 61.439873055353623 ] } },
{ "type": "Feature", "properties": { "tr_id": "TR-092", "kp_count": 16, "ss_id": "SS-NUORAMOINEN", "feeder_id": "F05" }, "geometry": { "type": "Point", "coordinates": [ 25.818069531334455, 61.32899105554187 ] } },
{ "type": "Feature", "properties": { "tr_id": "TR-093", "kp_count": 30, "ss_id": "SS-NUORAMOINEN", "feeder_id": "F06" }, "geometry": { "type": "Point", "coordinates": [ 25.949542901737978, 61.371397156796689 ] } },
{ "type": "Feature", "properties": { "tr_id": "TR-094", "kp_count": 51, "ss_id": "SS-SYSMA", "feeder_id": "F01" }, "geometry": { "type": "Point", "coordinates": [ 25.797605615246198, 61.582769612823434 ] } },
{ "type": "Feature", "properties": { "tr_id": "TR-095", "kp_count": 27, "ss_id": "SS-NUORAMOINEN", "feeder_id": "F05" }, "geometry": { "type": "Point", "coordinates": [ 25.735458346136483, 61.410557972874486 ] } },
{ "type": "Feature", "properties": { "tr_id": "TR-096", "kp_count": 10, "ss_id": "SS-NUORAMOINEN", "feeder_id": "F05" }, "geometry": { "type": "Point", "coordinates": [ 25.704671121630565, 61.349955835200326 ] } },
{ "type": "Feature", "properties": { "tr_id": "TR-097", "kp_count": 35, "ss_id": "SS-SYSMA", "feeder_id": "F02" }, "geometry": { "type": "Point", "coordinates": [ 25.527161321910281, 61.520852110413124 ] } },
{ "type": "Feature", "properties": { "tr_id": "TR-098", "kp_count": 38, "ss_id": "SS-SYSMA", "feeder_id": "F03" }, "geometry": { "type": "Point", "coordinates": [ 25.625033651425579, 61.675310934980288 ] } },
{ "type": "Feature", "properties": { "tr_id": "TR-099", "kp_count": 40, "ss_id": "SS-SYSMA", "feeder_id": "F01" }, "geometry": { "type": "Point", "coordinates": [ 25.753834864741425, 61.561053841373294 ] } },
{ "type": "Feature", "properties": { "tr_id": "TR-100", "kp_count": 65, "ss_id": "SS-SYSMA", "feeder_id": "F02" }, "geometry": { "type": "Point", "coordinates": [ 25.582472379302601, 61.490392639825892 ] } },
{ "type": "Feature", "properties": { "tr_id": "TR-101", "kp_count": 29, "ss_id": "SS-NUORAMOINEN", "feeder_id": "F05" }, "geometry": { "type": "Point", "coordinates": [ 25.688200799058865, 61.422309995831384 ] } },
{ "type": "Feature", "properties": { "tr_id": "TR-102", "kp_count": 12, "ss_id": "SS-NUORAMOINEN", "feeder_id": "F06" }, "geometry": { "type": "Point", "coordinates": [ 26.101691081000698, 61.443493224416912 ] } },
{ "type": "Feature", "properties": { "tr_id": "TR-103", "kp_count": 40, "ss_id": "SS-SYSMA", "feeder_id": "F01" }, "geometry": { "type": "Point", "coordinates": [ 25.754857279705533, 61.525735806842292 ] } },
{ "type": "Feature", "properties": { "tr_id": "TR-104", "kp_count": 29, "ss_id": "SS-NUORAMOINEN", "feeder_id": "F06" }, "geometry": { "type": "Point", "coordinates": [ 26.058370307529582, 61.389259965022283 ] } },
{ "type": "Feature", "properties": { "tr_id": "TR-105", "kp_count": 24, "ss_id": "SS-NUORAMOINEN", "feeder_id": "F05" }, "geometry": { "type": "Point", "coordinates": [ 25.599502231752425, 61.35199371954343 ] } },
{ "type": "Feature", "properties": { "tr_id": "TR-106", "kp_count": 24, "ss_id": "SS-SYSMA", "feeder_id": "F03" }, "geometry": { "type": "Point", "coordinates": [ 25.630729311628926, 61.660693219997718 ] } },
{ "type": "Feature", "properties": { "tr_id": "TR-107", "kp_count": 56, "ss_id": "SS-SYSMA", "feeder_id": "F02" }, "geometry": { "type": "Point", "coordinates": [ 25.501052825727832, 61.53579914754151 ] } },
{ "type": "Feature", "properties": { "tr_id": "TR-108", "kp_count": 14, "ss_id": "SS-NUORAMOINEN", "feeder_id": "F06" }, "geometry": { "type": "Point", "coordinates": [ 26.045458277939101, 61.453777789693099 ] } },
{ "type": "Feature", "properties": { "tr_id": "TR-109", "kp_count": 29, "ss_id": "SS-SYSMA", "feeder_id": "F03" }, "geometry": { "type": "Point", "coordinates": [ 25.567332029543554, 61.61353661925093 ] } },
{ "type": "Feature", "properties": { "tr_id": "TR-110", "kp_count": 38, "ss_id": "SS-SYSMA", "feeder_id": "F03" }, "geometry": { "type": "Point", "coordinates": [ 25.668278817445739, 61.605266456447197 ] } },
{ "type": "Feature", "properties": { "tr_id": "TR-111", "kp_count": 54, "ss_id": "SS-SYSMA", "feeder_id": "F03" }, "geometry": { "type": "Point", "coordinates": [ 25.716751037119291, 61.601229247907405 ] } },
{ "type": "Feature", "properties": { "tr_id": "TR-112", "kp_count": 8, "ss_id": "SS-SYSMA", "feeder_id": "F01" }, "geometry": { "type": "Point", "coordinates": [ 25.908666776040448, 61.575277740224408 ] } },
{ "type": "Feature", "properties": { "tr_id": "TR-113", "kp_count": 36, "ss_id": "SS-SYSMA", "feeder_id": "F02" }, "geometry": { "type": "Point", "coordinates": [ 25.659685126825742, 61.48832089251583 ] } },
{ "type": "Feature", "properties": { "tr_id": "TR-114", "kp_count": 29, "ss_id": "SS-SYSMA", "feeder_id": "F03" }, "geometry": { "type": "Point", "coordinates": [ 25.686738381492916, 61.709925061572768 ] } },
{ "type": "Feature", "properties": { "tr_id": "TR-115", "kp_count": 45, "ss_id": "SS-SYSMA", "feeder_id": "F01" }, "geometry": { "type": "Point", "coordinates": [ 25.905916241658929, 61.527972854497513 ] } },
{ "type": "Feature", "properties": { "tr_id": "TR-116", "kp_count": 25, "ss_id": "SS-SYSMA", "feeder_id": "F01" }, "geometry": { "type": "Point", "coordinates": [ 25.839151515858273, 61.60240814931538 ] } },
{ "type": "Feature", "properties": { "tr_id": "TR-117", "kp_count": 20, "ss_id": "SS-SYSMA", "feeder_id": "F03" }, "geometry": { "type": "Point", "coordinates": [ 25.808465792368761, 61.646553988927593 ] } },
{ "type": "Feature", "properties": { "tr_id": "TR-118", "kp_count": 27, "ss_id": "SS-SYSMA", "feeder_id": "F04" }, "geometry": { "type": "Point", "coordinates": [ 25.528327216639386, 61.451675754659739 ] } },
{ "type": "Feature", "properties": { "tr_id": "TR-119", "kp_count": 17, "ss_id": "SS-SYSMA", "feeder_id": "F01" }, "geometry": { "type": "Point", "coordinates": [ 25.769747770271817, 61.599031867603664 ] } },
{ "type": "Feature", "properties": { "tr_id": "TR-120", "kp_count": 29, "ss_id": "SS-NUORAMOINEN", "feeder_id": "F06" }, "geometry": { "type": "Point", "coordinates": [ 25.858551295279877, 61.469760553257636 ] } },
{ "type": "Feature", "properties": { "tr_id": "TR-121", "kp_count": 20, "ss_id": "SS-SYSMA", "feeder_id": "F04" }, "geometry": { "type": "Point", "coordinates": [ 25.546236171870394, 61.41083319070291 ] } },
{ "type": "Feature", "properties": { "tr_id": "TR-122", "kp_count": 56, "ss_id": "SS-NUORAMOINEN", "feeder_id": "F06" }, "geometry": { "type": "Point", "coordinates": [ 26.025765592344708, 61.426347183828533 ] } },
{ "type": "Feature", "properties": { "tr_id": "TR-123", "kp_count": 52, "ss_id": "SS-SYSMA", "feeder_id": "F02" }, "geometry": { "type": "Point", "coordinates": [ 25.756413971064138, 61.474429483312633 ] } },
{ "type": "Feature", "properties": { "tr_id": "TR-124", "kp_count": 30, "ss_id": "SS-NUORAMOINEN", "feeder_id": "F06" }, "geometry": { "type": "Point", "coordinates": [ 25.857245880625783, 61.417347671915522 ] } },
{ "type": "Feature", "properties": { "tr_id": "TR-125", "kp_count": 33, "ss_id": "SS-SYSMA", "feeder_id": "F01" }, "geometry": { "type": "Point", "coordinates": [ 25.837742322836377, 61.500909788111422 ] } },
{ "type": "Feature", "properties": { "tr_id": "TR-126", "kp_count": 20, "ss_id": "SS-NUORAMOINEN", "feeder_id": "F05" }, "geometry": { "type": "Point", "coordinates": [ 25.770707754306354, 61.366368654713519 ] } },
{ "type": "Feature", "properties": { "tr_id": "TR-127", "kp_count": 26, "ss_id": "SS-NUORAMOINEN", "feeder_id": "F06" }, "geometry": { "type": "Point", "coordinates": [ 25.994739890376572, 61.433716692673976 ] } },
{ "type": "Feature", "properties": { "tr_id": "TR-128", "kp_count": 22, "ss_id": "SS-NUORAMOINEN", "feeder_id": "F05" }, "geometry": { "type": "Point", "coordinates": [ 25.823517524851507, 61.381192555641341 ] } },
{ "type": "Feature", "properties": { "tr_id": "TR-129", "kp_count": 47, "ss_id": "SS-SYSMA", "feeder_id": "F02" }, "geometry": { "type": "Point", "coordinates": [ 25.608283165754099, 61.471583489409788 ] } },
{ "type": "Feature", "properties": { "tr_id": "TR-130", "kp_count": 24, "ss_id": "SS-SYSMA", "feeder_id": "F03" }, "geometry": { "type": "Point", "coordinates": [ 25.594112798454475, 61.649917009809172 ] } },
{ "type": "Feature", "properties": { "tr_id": "TR-131", "kp_count": 26, "ss_id": "SS-SYSMA", "feeder_id": "F03" }, "geometry": { "type": "Point", "coordinates": [ 25.626686077918098, 61.578672710669004 ] } },
{ "type": "Feature", "properties": { "tr_id": "TR-132", "kp_count": 103, "ss_id": "SS-SYSMA", "feeder_id": "F02" }, "geometry": { "type": "Point", "coordinates": [ 25.665074818337651, 61.505398277431453 ] } },
{ "type": "Feature", "properties": { "tr_id": "TR-133", "kp_count": 26, "ss_id": "SS-SYSMA", "feeder_id": "F03" }, "geometry": { "type": "Point", "coordinates": [ 25.645154789023529, 61.624436781234486 ] } },
{ "type": "Feature", "properties": { "tr_id": "TR-134", "kp_count": 54, "ss_id": "SS-NUORAMOINEN", "feeder_id": "F06" }, "geometry": { "type": "Point", "coordinates": [ 25.877524199070841, 61.496268824496099 ] } },
{ "type": "Feature", "properties": { "tr_id": "TR-135", "kp_count": 27, "ss_id": "SS-SYSMA", "feeder_id": "F01" }, "geometry": { "type": "Point", "coordinates": [ 25.851703075755736, 61.641914253308705 ] } },
{ "type": "Feature", "properties": { "tr_id": "TR-136", "kp_count": 78, "ss_id": "SS-SYSMA", "feeder_id": "F02" }, "geometry": { "type": "Point", "coordinates": [ 25.699384811989585, 61.494103798711201 ] } },
{ "type": "Feature", "properties": { "tr_id": "TR-137", "kp_count": 26, "ss_id": "SS-NUORAMOINEN", "feeder_id": "F05" }, "geometry": { "type": "Point", "coordinates": [ 25.772997913277994, 61.456717178980497 ] } },
{ "type": "Feature", "properties": { "tr_id": "TR-138", "kp_count": 34, "ss_id": "SS-SYSMA", "feeder_id": "F04" }, "geometry": { "type": "Point", "coordinates": [ 25.569998073006843, 61.374635574732928 ] } },
{ "type": "Feature", "properties": { "tr_id": "TR-139", "kp_count": 23, "ss_id": "SS-SYSMA", "feeder_id": "F01" }, "geometry": { "type": "Point", "coordinates": [ 25.805741426106334, 61.55362776840726 ] } },
{ "type": "Feature", "properties": { "tr_id": "TR-140", "kp_count": 42, "ss_id": "SS-SYSMA", "feeder_id": "F03" }, "geometry": { "type": "Point", "coordinates": [ 25.643544998697784, 61.683699955828374 ] } },
{ "type": "Feature", "properties": { "tr_id": "TR-141", "kp_count": 24, "ss_id": "SS-SYSMA", "feeder_id": "F04" }, "geometry": { "type": "Point", "coordinates": [ 25.648079240178106, 61.436034259495543 ] } },
{ "type": "Feature", "properties": { "tr_id": "TR-142", "kp_count": 34, "ss_id": "SS-SYSMA", "feeder_id": "F01" }, "geometry": { "type": "Point", "coordinates": [ 25.81555897642998, 61.628733529738341 ] } },
{ "type": "Feature", "properties": { "tr_id": "TR-143", "kp_count": 3, "ss_id": "SS-SYSMA", "feeder_id": "F02" }, "geometry": { "type": "Point", "coordinates": [ 25.463974814298759, 61.49731978941886 ] } },
{ "type": "Feature", "properties": { "tr_id": "TR-144", "kp_count": 82, "ss_id": "SS-SYSMA", "feeder_id": "F02" }, "geometry": { "type": "Point", "coordinates": [ 25.700904703615485, 61.507504184194659 ] } },
{ "type": "Feature", "properties": { "tr_id": "TR-145", "kp_count": 25, "ss_id": "SS-SYSMA", "feeder_id": "F01" }, "geometry": { "type": "Point", "coordinates": [ 25.847062656462072, 61.553796253300007 ] } },
{ "type": "Feature", "properties": { "tr_id": "TR-146", "kp_count": 20, "ss_id": "SS-NUORAMOINEN", "feeder_id": "F05" }, "geometry": { "type": "Point", "coordinates": [ 25.624063815806444, 61.384126162629805 ] } },
{ "type": "Feature", "properties": { "tr_id": "TR-147", "kp_count": 34, "ss_id": "SS-SYSMA", "feeder_id": "F03" }, "geometry": { "type": "Point", "coordinates": [ 25.60294174273956, 61.636485672347128 ] } },
{ "type": "Feature", "properties": { "tr_id": "TR-148", "kp_count": 46, "ss_id": "SS-SYSMA", "feeder_id": "F03" }, "geometry": { "type": "Point", "coordinates": [ 25.678386165686007, 61.671923162589522 ] } },
{ "type": "Feature", "properties": { "tr_id": "TR-149", "kp_count": 41, "ss_id": "SS-NUORAMOINEN", "feeder_id": "F05" }, "geometry": { "type": "Point", "coordinates": [ 25.818331626454643, 61.406282438008006 ] } },
{ "type": "Feature", "properties": { "tr_id": "TR-150", "kp_count": 122, "ss_id": "SS-SYSMA", "feeder_id": "F02" }, "geometry": { "type": "Point", "coordinates": [ 25.681908603004004, 61.516056531559173 ] } },
{ "type": "Feature", "properties": { "tr_id": "TR-151", "kp_count": 13, "ss_id": "SS-SYSMA", "feeder_id": "F04" }, "geometry": { "type": "Point", "coordinates": [ 25.543248092946516, 61.382976487172762 ] } },
{ "type": "Feature", "properties": { "tr_id": "TR-152", "kp_count": 34, "ss_id": "SS-SYSMA", "feeder_id": "F03" }, "geometry": { "type": "Point", "coordinates": [ 25.587167303825936, 61.58039708987922 ] } },
{ "type": "Feature", "properties": { "tr_id": "TR-153", "kp_count": 13, "ss_id": "SS-SYSMA", "feeder_id": "F03" }, "geometry": { "type": "Point", "coordinates": [ 25.736847774813722, 61.621914122081563 ] } },
{ "type": "Feature", "properties": { "tr_id": "TR-154", "kp_count": 20, "ss_id": "SS-SYSMA", "feeder_id": "F02" }, "geometry": { "type": "Point", "coordinates": [ 25.503672003729228, 61.509174328533739 ] } },
{ "type": "Feature", "properties": { "tr_id": "TR-155", "kp_count": 15, "ss_id": "SS-NUORAMOINEN", "feeder_id": "F05" }, "geometry": { "type": "Point", "coordinates": [ 25.623757025851326, 61.349349890072169 ] } },
{ "type": "Feature", "properties": { "tr_id": "TR-156", "kp_count": 25, "ss_id": "SS-SYSMA", "feeder_id": "F03" }, "geometry": { "type": "Point", "coordinates": [ 25.748512065002068, 61.659182668113452 ] } },
{ "type": "Feature", "properties": { "tr_id": "TR-157", "kp_count": 20, "ss_id": "SS-SYSMA", "feeder_id": "F03" }, "geometry": { "type": "Point", "coordinates": [ 25.676499129747967, 61.632087329272807 ] } },
{ "type": "Feature", "properties": { "tr_id": "TR-158", "kp_count": 20, "ss_id": "SS-NUORAMOINEN", "feeder_id": "F06" }, "geometry": { "type": "Point", "coordinates": [ 25.888734221054168, 61.397614196041324 ] } },
{ "type": "Feature", "properties": { "tr_id": "TR-159", "kp_count": 57, "ss_id": "SS-NUORAMOINEN", "feeder_id": "F05" }, "geometry": { "type": "Point", "coordinates": [ 25.555758353139865, 61.354860265983191 ] } },
{ "type": "Feature", "properties": { "tr_id": "TR-160", "kp_count": 143, "ss_id": "SS-SYSMA", "feeder_id": "F02" }, "geometry": { "type": "Point", "coordinates": [ 25.688663776035398, 61.501896277244306 ] } },
{ "type": "Feature", "properties": { "tr_id": "TR-161", "kp_count": 36, "ss_id": "SS-SYSMA", "feeder_id": "F02" }, "geometry": { "type": "Point", "coordinates": [ 25.68551012433872, 61.467485984770654 ] } },
{ "type": "Feature", "properties": { "tr_id": "TR-162", "kp_count": 11, "ss_id": "SS-NUORAMOINEN", "feeder_id": "F05" }, "geometry": { "type": "Point", "coordinates": [ 25.854305880147919, 61.365486965410796 ] } },
{ "type": "Feature", "properties": { "tr_id": "TR-163", "kp_count": 36, "ss_id": "SS-NUORAMOINEN", "feeder_id": "F05" }, "geometry": { "type": "Point", "coordinates": [ 25.808621336431731, 61.443150598244941 ] } },
{ "type": "Feature", "properties": { "tr_id": "TR-164", "kp_count": 20, "ss_id": "SS-SYSMA", "feeder_id": "F02" }, "geometry": { "type": "Point", "coordinates": [ 25.651801668000836, 61.54763973876549 ] } },
{ "type": "Feature", "properties": { "tr_id": "TR-165", "kp_count": 22, "ss_id": "SS-NUORAMOINEN", "feeder_id": "F06" }, "geometry": { "type": "Point", "coordinates": [ 25.939902037120692, 61.429216261406772 ] } },
{ "type": "Feature", "properties": { "tr_id": "TR-166", "kp_count": 18, "ss_id": "SS-SYSMA", "feeder_id": "F01" }, "geometry": { "type": "Point", "coordinates": [ 25.713383482506096, 61.560439396829963 ] } },
{ "type": "Feature", "properties": { "tr_id": "TR-167", "kp_count": 32, "ss_id": "SS-SYSMA", "feeder_id": "F04" }, "geometry": { "type": "Point", "coordinates": [ 25.631485522263265, 61.414742500994272 ] } },
{ "type": "Feature", "properties": { "tr_id": "TR-168", "kp_count": 23, "ss_id": "SS-NUORAMOINEN", "feeder_id": "F06" }, "geometry": { "type": "Point", "coordinates": [ 25.989959175207336, 61.416976227282511 ] } },
{ "type": "Feature", "properties": { "tr_id": "TR-169", "kp_count": 25, "ss_id": "SS-NUORAMOINEN", "feeder_id": "F05" }, "geometry": { "type": "Point", "coordinates": [ 25.669839399996935, 61.4157190794892 ] } },
{ "type": "Feature", "properties": { "tr_id": "TR-170", "kp_count": 106, "ss_id": "SS-SYSMA", "feeder_id": "F02" }, "geometry": { "type": "Point", "coordinates": [ 25.676578474211599, 61.50276808406057 ] } },
{ "type": "Feature", "properties": { "tr_id": "TR-171", "kp_count": 29, "ss_id": "SS-SYSMA", "feeder_id": "F04" }, "geometry": { "type": "Point", "coordinates": [ 25.646771297657931, 61.458734842506381 ] } },
{ "type": "Feature", "properties": { "tr_id": "TR-172", "kp_count": 28, "ss_id": "SS-SYSMA", "feeder_id": "F03" }, "geometry": { "type": "Point", "coordinates": [ 25.64428465562747, 61.666927402089215 ] } },
{ "type": "Feature", "properties": { "tr_id": "TR-173", "kp_count": 33, "ss_id": "SS-NUORAMOINEN", "feeder_id": "F06" }, "geometry": { "type": "Point", "coordinates": [ 25.860677210346196, 61.433397442133888 ] } },
{ "type": "Feature", "properties": { "tr_id": "TR-174", "kp_count": 34, "ss_id": "SS-SYSMA", "feeder_id": "F01" }, "geometry": { "type": "Point", "coordinates": [ 25.857573503485042, 61.519960960511135 ] } },
{ "type": "Feature", "properties": { "tr_id": "TR-175", "kp_count": 52, "ss_id": "SS-SYSMA", "feeder_id": "F01" }, "geometry": { "type": "Point", "coordinates": [ 25.737164630128596, 61.591672259854299 ] } },
{ "type": "Feature", "properties": { "tr_id": "TR-176", "kp_count": 18, "ss_id": "SS-NUORAMOINEN", "feeder_id": "F06" }, "geometry": { "type": "Point", "coordinates": [ 26.103127913952097, 61.418273274550188 ] } },
{ "type": "Feature", "properties": { "tr_id": "TR-177", "kp_count": 19, "ss_id": "SS-SYSMA", "feeder_id": "F01" }, "geometry": { "type": "Point", "coordinates": [ 25.890899844516131, 61.548874781391923 ] } },
{ "type": "Feature", "properties": { "tr_id": "TR-178", "kp_count": 21, "ss_id": "SS-SYSMA", "feeder_id": "F03" }, "geometry": { "type": "Point", "coordinates": [ 25.59808583203283, 61.60697865240995 ] } },
{ "type": "Feature", "properties": { "tr_id": "TR-179", "kp_count": 28, "ss_id": "SS-SYSMA", "feeder_id": "F04" }, "geometry": { "type": "Point", "coordinates": [ 25.712911271523026, 61.443781155842977 ] } },
{ "type": "Feature", "properties": { "tr_id": "TR-180", "kp_count": 20, "ss_id": "SS-NUORAMOINEN", "feeder_id": "F05" }, "geometry": { "type": "Point", "coordinates": [ 25.744266933372721, 61.434135165863431 ] } }
]
}
